ORBCOMM FM05            
1 25117U 97084F   24210.12057883  .00002164  00000+0  68047-3 0  9997
2 25117  45.0148 121.0638 0003305  28.9443 331.1590 14.43146316394687
ORBCOMM FM06            
1 25118U 97084G   24210.24015329  .00002480  00000+0  77212-3 0  9995
2 25118  45.0141 120.6127 0002457  38.1106  97.2366 14.43245570394699
ORBCOMM FM07            
1 25119U 97084H   24210.48735354  .00002471  00000+0  77100-3 0  9995
2 25119  45.0136 120.0206 0004000  23.8501 336.2534 14.43145081394725
ORBCOMM FM03            
1 25158U 98007B   24209.87995684  .00002019  00000+0  78287-3 0  9994
2 25158 107.9710 190.2014 0045460  94.9389 265.6942 14.32500036377708
ORBCOMM FM04            
1 25159U 98007C   24210.48225224  .00001952  00000+0  75609-3 0  9990
2 25159 107.9697 194.4280 0041084  91.4619 269.1226 14.32772378377939
ORBCOMM FM17            
1 25413U 98046A   24210.46428914  .00001341  00000+0  53218-3 0  9999
2 25413  44.9963 343.6749 0000531  30.0438 330.0439 14.33424462356868
ORBCOMM FM18            
1 25414U 98046B   24210.51261800  .00001610  00000+0  59389-3 0  9999
2 25414  44.9934 268.8341 0001627 100.5885 259.5146 14.36283710357840
ORBCOMM FM19            
1 25415U 98046C   24210.49072558  .00001592  00000+0  58981-3 0  9993
2 25415  44.9944 270.4561 0000424  72.1975 302.5527 14.36115359357837
